{
  "norad_id": 65956,
  "name": "KUIPER-00127",
  "history": [
    {
      "epoch": "2026-03-28T18:39:33.196320",
      "apogee_km": 641.6574154168584,
      "perigee_km": 640.1954848814621,
      "latitude_deg": -29.063325841243042,
      "longitude_deg": 130.23688480025157,
      "semi_major_axis_km": 7019.06345014916,
      "eccentricity": 0.00010414,
      "inclination_deg": 51.8991,
      "raan_deg": 268.1005,
      "arg_perigee_deg": 255.3297,
      "mean_anomaly_deg": 104.7548,
      "mean_motion_rev_day": 14.76331919
    }
  ]
}